#cP2023  7  7  0  0  0.00000000      96 ORBIT IGS20 HLM  IGS
## 2269 432000.00000000   900.00000000 60132 0.0000000000000
+   31   G01G02G03G04G05G06G07G08G09G10G11G12G13G14G15G16G18
+        G19G20G21G22G23G24G25G26G27G28G29G30G31G32  0  0  0
+          0  0  0  0  0  0  0  0  0  0  0  0  0  0  0  0  0
+          0  0  0  0  0  0  0  0  0  0  0  0  0  0  0  0  0
+          0  0  0  0  0  0  0  0  0  0  0  0  0  0  0  0  0
++         2  2  2  2  2  2  2  2  2  2  2  2  2  2  2  2  2
++         2  2  2  2  2  2  2  2  2  2  2  2  1  2  0  0  0
++         0  0  0  0  0  0  0  0  0  0  0  0  0  0  0  0  0
++         0  0  0  0  0  0  0  0  0  0  0  0  0  0  0  0  0
++         0  0  0  0  0  0  0  0  0  0  0  0  0  0  0  0  0
%c G  cc GPS ccc cccc cccc cccc cccc ccccc ccccc ccccc ccccc
%c cc cc ccc ccc cccc cccc cccc cccc ccccc ccccc ccccc ccccc
%f  1.2500000  1.025000000  0.00000000000  0.000000000000000
%f  0.0000000  0.000000000  0.00000000000  0.000000000000000
%i    0    0    0    0      0      0      0      0         0
%i    0    0    0    0      0      0      0      0         0
/* RAPID ORBIT COMBINATION FROM WEIGHTED AVERAGE OF:        
/* cod emr esa gfz grg jgx jpl ngs sio usn whu              
/* REFERENCED TO IGS TIME (IGST) AND TO WEIGHTED MEAN POLE: 
/* PCV:IGS20      OL/AL:FES2014b NONE     Y  ORB:CMB CLK:CMB
*  2023  7  7 17 15  0.00000000
PG01  15993.069366  13805.094255 -16650.489482    174.085356  5  5  5  95       
PG02  10425.890891  14156.520023 -19450.899390   -578.505144  5  6  5  80       
PG03  12886.834994  22559.547492   5672.342506   -241.970834  7  4  7  84       
PG04   8322.379197  13231.497834  21470.727725     89.150958  4  5  5  76       
PG05  -3637.415838 -24380.729741   9561.311670   -133.996037  8  9  8  83       
PG06  21427.386190  -6226.340311  14538.135180    579.959321  6  6  5  63       
PG07  25761.601286   6697.333568   3786.060856    131.725737  4  5  6  89       
PG08  -1338.557842  20802.400255 -16299.914433   -131.030606  4  6  5  85       
PG09  15874.108145   3525.817157  20932.411136   -117.892458  6  5  4  90       
PG10 -14165.999103   4171.552665 -21907.746966    -44.227598  5  4  6  95       
PG11   7308.425703 -13725.294331  21533.826505   -266.199414  5  8  6  75       
PG12  -9492.624998 -24702.963168   2427.289122   -397.847940  6  7  8  62       
PG13  10522.754927 -21243.142833 -11940.258974    544.043472  5  8  6 127       
PG14  15912.416608   -777.537408 -21252.823942    114.866044  6  3  5  70       
PG15  -2120.249058 -20799.432870 -16701.995705     55.839804  7  7  6  90       
PG16  -2269.772522  22950.322527  12457.422124   -483.427717     7  7  83       
PG18 -26237.785921  -4667.883538    287.740946   -336.709826  5  5  6 101       
PG19  20499.719322 -15924.918587  -4954.039536    340.733044  3  6  6  82       
PG20   2826.373519 -19776.474604  17626.598158    423.938350  6  5  6  94       
PG21   7948.963682  14698.295836 -20301.486629    152.406358  6  6  5  64       
PG22 -18643.094503  18739.408176   -985.868157    509.320578  6  9  7  75       
PG23 -17227.380782  -9053.426256 -18144.006562     40.765699  5  5  4 106       
PG24 -12205.086818 -14774.311581 -18916.366427   -250.163813  5  6  6  99       
PG25 -16464.805088 -16424.654568  12755.033818    454.649590  3  4  6  76       
PG26  -9241.277225  14782.800028  19830.447136    237.141562  4  4  4  67       
PG27 -11421.531039  22642.106245  -7393.809795      1.620730  6  7  4  85       
PG28 -22521.692666   6242.987076  12596.939793     83.200191  7  3  3 100       
PG29 -14277.695758  -6031.924581  21530.223344   -604.934776  6  7  4  87       
PG30  25961.766937   -423.617154  -6099.971519   -505.944998  5  4  4 103       
PG31 -13618.463994  11687.120759  19536.433998   -219.626674  3  5  2  49       
PG32 -19881.740284  14456.964615  -9618.528334   -516.325897  4  6  4  92       
*  2023  7  7 17 30  0.00000000
PG01  14070.426543  13623.103266 -18445.514256    174.083613  5  5  5  90       
PG02   8041.051242  14161.546226 -20509.556566   -578.501705  4  7  5  96       
PG03  12909.221245  23094.258509   2840.683200   -241.957097  6  4  8  68       
PG04   6761.251139  15076.966592  20781.015730     89.160593  4  6  6  87       
PG05  -2888.760365 -23339.246934  12054.879909   -133.997443  7  9  7  85       
PG06  22913.108205  -5903.861334  12220.629960    579.956446  6  5  5  71       
PG07  25207.576884   6868.683716   6512.163154    131.716244  4  5  6  87       
PG08  -2515.945447  22116.014007 -14262.267748   -131.032363  4  7  5 106       
PG09  14498.549993   5545.780921  21479.677355   -117.884177  6  4  3  86       
PG10 -15153.952151   1853.267340 -21593.196715    -44.229281  5  4  6  90       
PG11   9688.950266 -13263.947360  20869.316979   -266.213701  5  8  6  80       
PG12  -9315.400873 -24917.333157   -429.648191   -397.852026  6  7  7  93       
PG13  11517.754790 -21951.307826  -9420.497721    544.048214  5  7  6 131       
PG14  16734.116254   1477.300086 -20588.846423    114.876958  6  4  5  96       
PG15  -1083.928434 -22219.836483 -14787.391772     55.843227  7  8  7  87       
PG16  -2989.439131  21486.073782  14703.971109   -483.423822  1  6  7 100       
PG18 -26016.056614  -4844.614906   3150.630362   -336.722846  5  5  6  88       
PG19  20190.219128 -15249.636914  -7728.803434    340.737527  2  4  7  85       
PG20   4083.349609 -18097.023273  19107.629751    423.936647  6  5  6  85       
PG21   5486.703403  14661.106010 -21030.448007    152.405970  5  6  5  33       
PG22 -18623.645664  18320.302052  -3837.959203    509.325622  6  9  7  85       
PG23 -17942.448794 -10889.840661 -16368.762289     40.769356  5  4  4  99       
PG24 -10042.707201 -14827.865202 -20093.736057   -250.175089  5  7  6  98       
PG25 -16812.227840 -17758.232499  10372.637832    454.651764  3  4  6  91       
PG26 -10422.601438  12739.240011  20671.674245    237.140719  5  4  4  81       
PG27 -12022.224863  23025.259518  -4612.703068      1.613768  5  8  4  93       
PG28 -23804.408449   5918.180284  10163.854953     83.199390  7  4  3 112       
PG29 -12659.375690  -7926.704980  21915.280437   -604.935602  6  7  5  84       
PG30  26473.512936    -55.650099  -3381.247440   -505.942612  5  4  4 105       
PG31 -15761.136796  11267.423094  18173.195983   -219.627441  4  5  2  88       
PG32 -19323.399213  13287.528228 -12096.972206   -516.333055  3  6  4  79       
*  2023  7  7 17 45  0.00000000
PG01  11957.555436  13539.087685 -19935.093066    174.081834  5  5  5  96       
PG02   5555.317110  14293.122096 -21200.111703   -578.498190  4  7  5 103       
PG03  12817.009034  23337.139049    -39.614376   -241.943223  6  5  7  73       
PG04   5355.164044  16922.248465  19733.299384     89.170204  4  6  6  91       
PG05  -1952.153542 -22100.673562  14337.827810   -133.999013  7  9  7  93       
PG06  24141.347787  -5684.232435   9694.475256    579.953609  6  5  4  54       
PG07  24368.047856   7047.576571   9130.707655    131.706688  4  5  6  86       
PG08  -3497.325520  23280.188835 -11975.725149   -131.033320  4  6  4 101       
PG09  13206.229248   7668.765927  21654.904677   -117.875868  6  5  2  87       
PG10 -16240.005708   -353.104662 -20902.238343    -44.230357  5  5  6  84       
PG11  11995.864192 -12939.177363  19845.628919   -266.228017  5  8  6  80       
PG12  -9027.666938 -24842.235139  -3279.254681   -397.856421  6  7  7  95       
PG13  12280.984304 -22489.448325  -6737.868908    544.052941  5  6  6 127       
PG14  17627.654009   3600.358345 -19571.093697    114.887888  5  4  5  90       
PG15   -210.449178 -23484.970456 -12622.654038     55.846173  7  8  7 101       
PG16  -3873.146971  19834.280986  16687.126293   -483.419862  2  6  6 103       
PG18 -25484.860484  -5009.023568   5959.834935   -336.735868  4  5  6  77       
PG19  19720.846814 -14322.860739 -10369.000536    340.742043  3  2  7  74       
PG20   5512.469767 -16362.702789  20262.511924    423.934390  6  5  6  91       
PG21   2953.432944  14752.697681 -21383.171654    152.405525  5  7  5  77       
PG22 -18429.621836  17644.697443  -6622.778919    509.330902  6  9  7  67       
PG23 -18653.583545 -12492.936796 -14313.614030     40.772988  6  5  4  96       
PG24  -7771.535142 -14991.112957 -20938.840514   -250.186352  5  7  6 106       
PG25 -17099.828432 -18820.594313   7811.748807    454.653896  4  4  6  80       
PG26 -11735.332548  10691.513304  21151.702550    237.139717  5  4  3  95       
PG27 -12428.597027  23168.768068  -1750.614586      1.606841  5  8  3 106       
PG28 -24816.757428   5667.592970   7555.667410     83.198521  7  5  2 101       
PG29 -11132.347063  -9925.143335  21921.590028   -604.936472  6  7  5 101       
PG30  26694.732918    264.858217   -605.145866   -505.940172  5  4  4  93       
PG31 -17747.110589  10973.481423  16497.337102   -219.628084  4  5  1  92       
PG32 -18679.154423  11862.745537 -14363.111110   -516.340156  3  6  5  90       
EOF
